#aV2015 12  8  0  0  0.00000000     288 DD+AD WGS84 FIT  NGA
## 1874 172800.00000000   300.00000000 57364 0.0000000000000
+   31     1  2  3  5  6  7  8  9 10 11 12 13 14 15 16 17 18
+         19 20 21 22 23 24 25 26 27 28 29 30 31 32  0  0  0
+          0  0  0  0  0  0  0  0  0  0  0  0  0  0  0  0  0
+          0  0  0  0  0  0  0  0  0  0  0  0  0  0  0  0  0
+          0  0  0  0  0  0  0  0  0  0  0  0  0  0  0  0  0
++         2  2  2  2  2  2  2  2  2  2  2  2  2  2  2  2  2
++         2  2  2  2  2  2  2  2  2  2  2  2  2  2  0  0  0
++         0  0  0  0  0  0  0  0  0  0  0  0  0  0  0  0  0
++         0  0  0  0  0  0  0  0  0  0  0  0  0  0  0  0  0
++         0  0  0  0  0  0  0  0  0  0  0  0  0  0  0  0  0
%c cc cc ccc ccc cccc cccc cccc cccc ccccc ccccc ccccc ccccc
%c cc cc ccc ccc cccc cccc cccc cccc ccccc ccccc ccccc ccccc
%f  0.0000000  0.000000000  0.00000000000  0.000000000000000
%f  0.0000000  0.000000000  0.00000000000  0.000000000000000
%i    0    0    0    0      0      0      0      0         0
%i    0    0    0    0      0      0      0      0         0
/*      NGA, ST. LOUIS,MO.                                  
/*   EPHEMERIS COMPUTED FROM 2 DAYS OF DATA                 
/*   EPOCHA v2.4 SMOOTHER                                   
/*   G1762 IERS2010 SATAF SATAPC                            
*  2015 12  8 10  5  0.00000000
P  1  14986.487929  -2447.186232  21723.322836      6.169919                    
V  1   7140.332373  26813.290627  -1696.667348      0.008612                    
P  2 -14022.064366 -20273.644643 -10033.728535    597.488394                    
V  2  -1298.317477 -13439.487493  27438.249568      0.006991                    
P  3  21541.069580  -9628.575979  12211.878128      5.074197                    
V  3  -9199.362063  12704.467777  26226.463550     -0.048905                    
P  5 -13489.877892  -8272.821154 -21417.309912   -167.099203                    
V  5  18591.588612 -19677.462575  -3928.573657      0.036917                    
P  6  -6362.842522 -25768.619251   1106.867314    108.571350                    
V  6   3018.130164    619.274697  31755.203378      0.065003                    
P  7   7778.253214 -18204.307553 -17385.116495    478.052656                    
V  7   7206.635354  21353.068807 -19370.656718     -0.012248                    
P  8  25971.501550   5214.456294   1957.861561    -15.395738                    
V  8   1660.841642   3293.743928 -31650.308039     -0.014638                    
P  9  14698.569592 -10462.512027 -19508.866543     24.212750                    
V  9  23672.147550   7349.198965  13894.730514      0.076073                    
P 10  -6591.418875  21253.964272  14475.718281     38.972457                    
V 10 -14415.735468  11626.772360 -23683.632392      0.069546                    
P 11  19020.457659   1744.358200  17930.046482   -620.559369                    
V 11  12200.520980  20963.210351 -14473.390771     -0.022179                    
P 12 -21215.270555   6861.017004  14155.418806    351.639837                    
V 12  12304.949994 -13497.166341  25004.703977      0.029922                    
P 13 -22475.475232 -12866.403225  -5797.189194   -169.872304                    
V 13   7580.609130    337.518579 -30949.581885     -0.027050                    
P 14   1954.531809  16204.737635  21231.651329     16.793439                    
V 14 -25100.052031  -7992.362399   8366.816473     -0.023970                    
P 15 -26335.590216  -2405.954515   3892.162413   -286.108286                    
V 15  -4276.964795  -4312.466845 -30371.406590     -0.019435                    
P 16  12063.427289   8687.605395 -22120.123638    -59.315348                    
V 16 -20774.598028  18432.444516  -3741.954477      0.034876                    
P 17  -1946.932855 -15892.193324  21543.163197   -196.022206                    
V 17  25478.096536   7424.833261   7691.708701     -0.009059                    
P 18 -14727.008405  21430.171557   5139.222514    460.615228                    
V 18  -7021.818969   1631.895025 -30184.241735      0.037919                    
P 19   9852.895355 -11965.994806  21417.457043   -523.527593                    
V 19  25827.583257   9722.453429  -5966.693391     -0.003848                    
P 20 -20951.730143   8057.229541 -14409.338311    376.792506                    
V 20   9514.370580 -15645.460804 -22768.468487      0.028089                    
P 21  -4506.969699  21379.224238 -14166.995990   -498.232916                    
V 21  -8555.070126 -17712.458078 -23168.761862     -0.022792                    
P 22  -3507.651736  21195.502992  15741.102236    417.669563                    
V 22 -15510.232340  12539.593985 -20831.578345      0.032725                    
P 23  24222.795161  -1885.618889 -11059.110183   -148.590044                    
V 23  13076.269648   6006.527121  26770.009306     -0.020132                    
P 24 -15952.116595   -589.196103  21212.596090     -8.990164                    
V 24  -7206.308208 -26058.992652  -5956.243227     -0.006106                    
P 25 -19781.597631  17338.042145   2800.872265    -79.510565                    
V 25    887.560133  -4311.353038  31995.481778     -0.060159                    
P 26   3346.303756  16845.616811 -20249.293183   -155.796480                    
V 26 -18725.526034  17678.262663  11630.310113     -0.170232                    
P 27  22284.041173  11793.128273  -8588.953151     42.517504                    
V 27 -11037.992224   -536.627682 -29323.497095      0.032831                    
P 28   8300.388722 -20549.589259  15219.378363    486.812608                    
V 28  14517.063822 -11017.061136 -23863.465567      0.026613                    
P 29 -17548.044554   7493.154257 -18444.232345    647.493659                    
V 29 -21919.045275  -8372.001340  17471.686407      0.013951                    
P 30   1222.874573 -25042.162725  -8644.727013     68.031950                    
V 30   4959.458061  10234.299024 -29022.678300      0.052870                    
P 31   6347.816147  25586.215737   -271.847041    292.135317                    
V 31  -2541.766908   1124.863736  32260.162053     -0.015031                    
P 32  18304.102526   2138.196191  18857.902869     41.289809                    
V 32 -17185.086766  17318.845564  15194.452139      0.120077                    
EOF
